OBJECT_NAME,OBJECT_ID,EPOCH,MEAN_MOTION,ECCENTRICITY,INCLINATION,RA_OF_ASC_NODE,ARG_OF_PERICENTER,MEAN_ANOMALY,EPHEMERIS_TYPE,CLASSIFICATION_TYPE,NORAD_CAT_ID,ELEMENT_SET_NO,REV_AT_EPOCH,BSTAR,MEAN_MOTION_DOT,MEAN_MOTION_DDOT
YAOGAN-17 01C,2013-046C,2026-07-11T11:25:10.580160,13.45482422,.0429164,63.3875,27.0080,11.6431,349.4147,0,U,39241,999,63164,.10214E-4,-.8E-6,0
GONETS-M 5,2013-048A,2026-07-11T12:07:51.382848,12.42892679,.0017197,82.4844,328.2210,157.4047,202.7793,0,U,39249,999,58190,.27603E-3,.48E-6,0
GONETS-M 6,2013-048B,2026-07-11T11:18:57.500640,12.43031914,.0019151,82.4872,329.1401,190.1705,169.8990,0,U,39250,999,58196,.32222E-3,.55E-6,0
GONETS-M 7,2013-048C,2026-07-11T11:13:52.733280,12.42915416,.0017973,82.4911,331.1793,158.7454,201.4376,0,U,39251,999,58185,.62252E-4,.19E-6,0
HISAKI (SPRINT-A),2013-049A,2026-07-10T23:46:39.008928,13.55546483,.0136948,29.7202,98.9881,209.8282,149.4426,0,U,39253,999,63465,.17602E-4,.8E-6,0
AEHF-3 (USA 246),2013-050A,2026-07-11T11:15:38.693376,1.00270126,.0088329,5.3519,66.9628,187.6923,79.3664,0,U,39256,999,4589,0,.3E-6,0
FENGYUN 3C,2013-052A,2026-07-11T11:55:23.107008,14.15760271,.0013824,98.4995,165.2573,317.2737,42.7362,0,U,39260,999,66200,.29628E-4,.17E-6,0
CASSIOPE,2013-055A,2026-07-11T11:36:28.099584,15.27255495,.0283757,80.9130,37.1651,340.4700,18.5827,0,U,39265,999,67137,.2438E-3,.22748E-3,-.54925E-6
POPACS 2,2013-055E,2026-07-09T05:58:19.946208,14.91853625,.04154574,80.9909,118.9327,122.9592,241.2292,0,U,39269,999,66650,.24178562E-3,.14766E-3,-.881509E-6
POPACS 3,2013-055F,2026-07-11T08:54:18.998208,14.56594959,.0549245,80.9987,202.9550,356.3437,3.3807,0,U,39270,999,64207,.2118E-3,.8935E-4,0
ASTRA 2E,2013-056A,2026-07-11T11:58:50.860992,1.00273206,.000276,0.0823,308.7866,177.7018,11.1240,0,U,39285,999,4666,0,.156E-5,0
SHIJIAN-16 (SJ-16),2013-057A,2026-07-11T12:04:08.059584,14.92666393,.0015932,74.9736,310.6277,173.8429,186.2959,0,U,39358,999,68997,.1292E-3,.1306E-4,0
FM-6,2013-058A,2026-07-11T11:17:39.808896,1.00270007,.0001314,0.0159,48.4433,129.4271,164.5647,0,U,39360,999,4631,0,-.1E-6,0
RADUGA-1M 3,2013-062A,2026-07-11T06:52:51.590208,1.00270319,.0002001,6.0169,72.0439,272.6286,82.7191,0,U,39375,999,4634,0,.153E-5,0
YAOGAN-19,2013-065A,2026-07-11T11:59:13.210080,13.15584662,.0009999,100.1125,167.8147,35.3927,324.7848,0,U,39410,999,60684,.99403E-4,-.5E-7,0
APRIZESAT 7,2013-066A,2026-07-11T07:18:11.888064,14.91614326,.0036972,97.7720,145.1796,129.7775,230.6710,0,U,39416,999,68482,.66713E-4,.621E-5,0
ZACUBE-1 (TSHEPISOSAT),2013-066B,2026-07-11T04:51:19.576224,15.01317932,.0043797,97.8013,154.6584,168.0001,192.2277,0,U,39417,999,68433,.11848E-3,.1491E-4,0
SKYSAT-A,2013-066C,2026-07-11T01:34:31.492128,15.13102101,.0020122,97.3805,240.7017,228.3568,131.5941,0,U,39418,999,69209,.96068E-4,.1644E-4,0
DUBAISAT-2,2013-066D,2026-07-11T12:27:15.818976,15.10358275,.0009772,97.4572,182.0290,316.8590,43.1873,0,U,39419,999,69006,.14569E-3,.233E-4,0
OPTOS,2013-066E,2026-07-11T12:56:59.597088,14.72384023,.0115002,97.6782,56.0609,293.3600,65.5544,0,U,39420,999,67510,.8526E-4,.544E-5,0
STSAT-3,2013-066G,2026-07-11T11:34:24.367008,15.02874158,.0008964,97.6192,161.9785,321.2451,38.8130,0,U,39422,999,68785,.90562E-4,.1155E-4,0
WNISAT-1,2013-066H,2026-07-11T08:48:49.396032,14.58114697,.0163641,97.7229,339.8108,155.3105,205.6042,0,U,39423,999,67025,.14072E-3,.731E-5,0
APRIZESAT 8,2013-066K,2026-07-11T06:54:41.319072,14.87692659,.0045176,97.8228,139.4214,204.8859,155.0179,0,U,39425,999,68325,.53525E-4,.439E-5,0
TRITON-1,2013-066M,2026-07-11T12:55:57.001152,14.81788422,.009028,97.8228,101.7898,153.9237,206.6565,0,U,39427,999,67769,.15091E-3,.1221E-4,0
GOMX-1,2013-066Q,2026-07-11T11:51:58.466880,14.69537490,.012865,97.6477,31.4235,0.1107,0.0106,0,U,39430,999,67348,.156E-3,.998E-5,0
CUBEBUG-2 (LO-74),2013-066AA,2026-07-11T07:27:07.759008,14.93951590,.0056043,97.8909,141.3951,308.5622,51.0583,0,U,39440,999,68059,.17366E-3,.1843E-4,0
NEE-02 KRYSAOR,2013-066AB,2026-07-11T07:18:21.575232,14.86729301,.0065753,97.8893,131.3492,352.1228,7.8949,0,U,39441,999,67978,.17712E-3,.1579E-4,0
FUNCUBE-1 (AO-73),2013-066AE,2026-07-10T23:38:02.253120,15.09785992,.0037927,97.8286,163.9335,121.2536,239.2417,0,U,39444,999,68325,.25254E-3,.4079E-4,0
UWE-3,2013-066AG,2026-07-11T08:14:51.582048,14.97184048,.004753,97.8697,148.5848,237.9674,121.6926,0,U,39446,999,68119,.16088E-3,.1839E-4,0
SWARM B,2013-067A,2026-07-11T11:40:23.515392,15.28702454,.0002476,87.7453,334.9345,82.1839,277.9691,0,U,39451,999,68695,.79228E-4,.2245E-4,0
SWARM A,2013-067B,2026-07-11T12:58:54.383808,15.51411399,.0003328,87.3306,47.1873,94.7395,265.4246,0,U,39452,999,71002,.11023E-3,.6533E-4,0
